{
    "links": {
        "self": "http://www.neowsapp.com/rest/v1/neo/3127412?api_key=iIulBulltgU6a56xZRHN4H3l9WmuAYTsLGpBGhQ2"
    },
    "id": "3127412",
    "neo_reference_id": "3127412",
    "name": "(2002 MX)",
    "designation": "2002 MX",
    "nasa_jpl_url": "http://ssd.jpl.nasa.gov/sbdb.cgi?sstr=3127412",
    "absolute_magnitude_h": 21.7,
    "estimated_diameter": {
        "kilometers": {
            "estimated_diameter_min": 0.1214940408,
            "estimated_diameter_max": 0.2716689341
        },
        "meters": {
            "estimated_diameter_min": 121.4940407996,
            "estimated_diameter_max": 271.6689340891
        },
        "miles": {
            "estimated_diameter_min": 0.0754928736,
            "estimated_diameter_max": 0.1688071972
        },
        "feet": {
            "estimated_diameter_min": 398.6025088171,
            "estimated_diameter_max": 891.3023057169
        }
    },
    "is_potentially_hazardous_asteroid": true,
    "close_approach_data": [
        {
            "close_approach_date": "2002-06-12",
            "close_approach_date_full": "2002-Jun-12 02:02",
            "epoch_date_close_approach": 1023847320000,
            "relative_velocity": {
                "kilometers_per_second": "25.5766985956",
                "kilometers_per_hour": "92076.1149441028",
                "miles_per_hour": "57212.5170884621"
            },
            "miss_distance": {
                "astronomical": "0.0414866072",
                "lunar": "16.1382902008",
                "kilometers": "6206308.070646664",
                "miles": "3856421.0104814032"
            },
            "orbiting_body": "Earth"
        }
    ],
    "orbital_data": {
        "orbit_id": "12",
        "orbit_determination_date": "2017-04-06 09:15:03",
        "first_observation_date": "2002-06-17",
        "last_observation_date": "2002-07-05",
        "data_arc_in_days": 18,
        "observations_used": 35,
        "orbit_uncertainty": "8",
        "minimum_orbit_intersection": ".0149314",
        "jupiter_tisserand_invariant": "2.913",
        "epoch_osculation": "2452447.5",
        "eccentricity": ".7965403555065996",
        "semi_major_axis": "2.508943821620865",
        "inclination": "1.962531306397874",
        "ascending_node_longitude": "284.3024040127856",
        "orbital_period": "1451.559466500748",
        "perihelion_distance": ".5104688180008945",
        "perihelion_argument": "237.5817060917389",
        "aphelion_distance": "4.507418825240835",
        "perihelion_time": "2452392.106164225629",
        "mean_anomaly": "13.73817700135077",
        "mean_motion": ".2480091297036879",
        "equinox": "J2000",
        "orbit_class": {
            "orbit_class_type": "APO",
            "orbit_class_description": "Near-Earth asteroid orbits which cross the Earth’s orbit similar to that of 1862 Apollo",
            "orbit_class_range": "a (semi-major axis) > 1.0 AU; q (perihelion) < 1.017 AU"
        }
    },
    "is_sentry_object": false
}